OBJECT C                
1 57582U 23117C   24352.18372494  .00011775  00000+0  52819-3 0  9993
2 57582  97.4679  62.1893 0010066  24.1623 336.0082 15.21314323 74953
